0 COSMOS 1992
1 19769U 89005A   13283.05863374  .00000145  00000-0  60456-4 0  3312
2 19769 074.0461 093.9789 0022732 358.8117 001.2977 14.34437176292515
0 COSMOS 1992
1 19769U 89005A   13285.91804129  .00000082  00000-0  38153-4 0  3333
2 19769 074.0466 088.7459 0022837 352.9778 007.1050 14.34438419292923
0 COSMOS 1992
1 19769U 89005A   13286.96416515  .00000095  00000-0  42728-4 0  3345
2 19769 074.0468 086.8313 0022880 350.7856 009.2873 14.34438521293071
0 COSMOS 1992
1 19769U 89005A   13288.14977226  .00000144  00000-0  60196-4 0  3353
2 19769 074.0470 084.6616 0022928 348.3590 011.7029 14.34439245293241
0 COSMOS 1992
1 19769U 89005A   13289.47486217  .00000081  00000-0  38087-4 0  3360
2 19769 074.0473 082.2367 0022968 345.7164 014.3336 14.34439894293434
0 COSMOS 1992
1 19769U 89005A   13290.73020912  .00000150  00000-0  62248-4 0  3371
2 19769 074.0475 079.9394 0023032 343.0504 016.9876 14.34439800293615
0 COSMOS 1992
1 19769U 89005A   13292.12503946  .00000175  00000-0  71372-4 0  3385
2 19769 074.0476 077.3868 0023104 340.1561 019.8689 14.34439926293810
0 COSMOS 1992
1 19769U 89005A   13293.17116236  .00000183  00000-0  73945-4 0  3391
2 19769 074.0477 075.4725 0023143 338.0446 021.9712 14.34440439293961
0 COSMOS 1992
1 19769U 89005A   13294.49625094  .00000176  00000-0  71740-4 0  3409
2 19769 074.0479 073.0478 0023179 335.4208 024.5837 14.34441211294156
0 COSMOS 1992
1 19769U 89005A   13295.96082173  .00000200  00000-0  80220-4 0  3419
2 19769 074.0481 070.3678 0023242 332.4212 027.5705 14.34441629294356
